QIANFAN GROUP 7 OBJECT G
1 68642U 26075G   26106.72786029  .00000070  00000+0  24409-4 0  9991
2 68642  88.9916 327.6570 0014984 183.1473 176.9627 14.23787133  1303
