{
  "norad_id": 68642,
  "name": "QIANFAN GROUP 7 OBJECT G",
  "history": [
    {
      "epoch": "2026-04-16T17:28:07.129056Z",
      "apogee_km": 823.3479691179909,
      "perigee_km": 801.7988481653738,
      "latitude_deg": -4.328569373475417e-05,
      "longitude_deg": -139.2441157211924,
      "height_km": 826.3936450164845,
      "semi_major_axis_km": 7190.710408641682,
      "eccentricity": 0.0014984,
      "inclination_deg": 88.9916,
      "raan_deg": 327.657,
      "arg_perigee_deg": 183.1473,
      "mean_anomaly_deg": 176.9627,
      "mean_motion_rev_day": 14.23787133
    }
  ]
}